FLOCK 4G-29             
1 62642U 25009AK  26068.81464037  .00011147  00000+0  41831-3 0  9994
2 62642  97.4058 151.3683 0001366 288.0502  72.0588 15.27382318 63721
STARLINK-33706          
1 63461U 25070B   26068.56574788  .00033867  00000+0  12348-2 0  9992
2 63461  42.9990 260.8327 0001980 301.9874  58.0785 15.27573082 52957
